{
  "norad_id": 67498,
  "name": "STARLINK-36081",
  "history": [
    {
      "epoch": "2026-04-17T22:38:24.290016Z",
      "apogee_km": 483.96661825884894,
      "perigee_km": 482.14675524537506,
      "latitude_deg": 2.0724559194924022e-05,
      "longitude_deg": -92.8092234663381,
      "height_km": 482.84450324400353,
      "semi_major_axis_km": 6861.193686752112,
      "eccentricity": 0.00013262,
      "inclination_deg": 43.0039,
      "raan_deg": 92.8614,
      "arg_perigee_deg": 269.3234,
      "mean_anomaly_deg": 90.7466,
      "mean_motion_rev_day": 15.27577465
    },
    {
      "epoch": "2026-04-19T15:26:28.127040Z",
      "apogee_km": 483.7317610947712,
      "perigee_km": 482.2785711839824,
      "latitude_deg": -6.203924028270939e-05,
      "longitude_deg": 3.8984596980237662,
      "height_km": 482.709265264366,
      "semi_major_axis_km": 6861.142166139376,
      "eccentricity": 0.0001059,
      "inclination_deg": 43.0038,
      "raan_deg": 83.2608,
      "arg_perigee_deg": 275.7461,
      "mean_anomaly_deg": 84.3269,
      "mean_motion_rev_day": 15.27594671
    },
    {
      "epoch": "2026-04-20T08:42:11.467008Z",
      "apogee_km": 484.26751568093187,
      "perigee_km": 481.8419471800362,
      "latitude_deg": -4.640116438895242e-08,
      "longitude_deg": 100.19611460448246,
      "height_km": 483.03447171570133,
      "semi_major_axis_km": 6861.191731430484,
      "eccentricity": 0.00017676,
      "inclination_deg": 43.0053,
      "raan_deg": 79.1979,
      "arg_perigee_deg": 260.4026,
      "mean_anomaly_deg": 99.6626,
      "mean_motion_rev_day": 15.27578118
    },
    {
      "epoch": "2026-04-21T14:31:09.484032Z",
      "apogee_km": 483.3822413879334,
      "perigee_km": 482.4340449491474,
      "latitude_deg": -3.1547092679087096e-05,
      "longitude_deg": 4.714836052598257,
      "height_km": 482.6798806344285,
      "semi_major_axis_km": 6861.045143168541,
      "eccentricity": 6.91e-05,
      "inclination_deg": 43.0017,
      "raan_deg": 72.1829,
      "arg_perigee_deg": 270.5477,
      "mean_anomaly_deg": 89.5295,
      "mean_motion_rev_day": 15.27627074
    },
    {
      "epoch": "2026-04-22T14:03:30.985056Z",
      "apogee_km": 483.2270220308237,
      "perigee_km": 483.06235127034506,
      "latitude_deg": -3.7857368441408676e-05,
      "longitude_deg": 5.119714326787085,
      "height_km": 482.9764437985635,
      "semi_major_axis_km": 6861.281686650585,
      "eccentricity": 1.2e-05,
      "inclination_deg": 43.0023,
      "raan_deg": 66.6441,
      "arg_perigee_deg": 227.1417,
      "mean_anomaly_deg": 132.9424,
      "mean_motion_rev_day": 15.27548077
    },
    {
      "epoch": "2026-04-23T13:35:53.644704Z",
      "apogee_km": 483.63770441107863,
      "perigee_km": 482.5222077583576,
      "latitude_deg": 3.8505881626947456e-05,
      "longitude_deg": 5.519740382800444,
      "height_km": 483.1179874165016,
      "semi_major_axis_km": 6861.216956084718,
      "eccentricity": 8.129e-05,
      "inclination_deg": 43.0052,
      "raan_deg": 61.1052,
      "arg_perigee_deg": 242.0535,
      "mean_anomaly_deg": 118.0235,
      "mean_motion_rev_day": 15.27569694
    },
    {
      "epoch": "2026-04-24T20:59:00.148992Z",
      "apogee_km": 483.31487807172743,
      "perigee_km": 482.57250914067936,
      "latitude_deg": 2.8715054137523622e-05,
      "longitude_deg": -113.93061471141804,
      "height_km": 483.074154939012,
      "semi_major_axis_km": 6861.080693606203,
      "eccentricity": 5.41e-05,
      "inclination_deg": 42.9993,
      "raan_deg": 53.7209,
      "arg_perigee_deg": 196.9663,
      "mean_anomaly_deg": 163.1171,
      "mean_motion_rev_day": 15.27615201
    },
    {
      "epoch": "2026-04-25T20:31:19.958304Z",
      "apogee_km": 483.371905502544,
      "perigee_km": 482.5815052036869,
      "latitude_deg": 1.1252039062216657e-05,
      "longitude_deg": -113.5201779384668,
      "height_km": 482.9321611686379,
      "semi_major_axis_km": 6861.113705353115,
      "eccentricity": 5.76e-05,
      "inclination_deg": 42.9988,
      "raan_deg": 48.1806,
      "arg_perigee_deg": 242.9531,
      "mean_anomaly_deg": 117.1262,
      "mean_motion_rev_day": 15.27604176
    },
    {
      "epoch": "2026-04-26T20:03:40.711968Z",
      "apogee_km": 483.18635419046313,
      "perigee_km": 482.7829202381945,
      "latitude_deg": 2.835174897605367e-05,
      "longitude_deg": -113.11194926174751,
      "height_km": 482.9224804773401,
      "semi_major_axis_km": 6861.121637214328,
      "eccentricity": 2.94e-05,
      "inclination_deg": 43.0005,
      "raan_deg": 42.642,
      "arg_perigee_deg": 143.7089,
      "mean_anomaly_deg": 216.3783,
      "mean_motion_rev_day": 15.27601527
    },
    {
      "epoch": "2026-04-27T19:36:01.702368Z",
      "apogee_km": 484.05657925631476,
      "perigee_km": 482.0929004563677,
      "latitude_deg": 1.3779372892387581e-05,
      "longitude_deg": -112.70544315661274,
      "height_km": 483.0940170262805,
      "semi_major_axis_km": 6861.2117398563405,
      "eccentricity": 0.0001431,
      "inclination_deg": 43.0049,
      "raan_deg": 37.1027,
      "arg_perigee_deg": 255.7264,
      "mean_anomaly_deg": 104.3429,
      "mean_motion_rev_day": 15.27571436
    },
    {
      "epoch": "2026-04-27T22:44:20.588928Z",
      "apogee_km": 484.12353589254417,
      "perigee_km": 482.01687083282377,
      "latitude_deg": 6.55828015995781e-05,
      "longitude_deg": -160.65147869573732,
      "height_km": 483.0494224105522,
      "semi_major_axis_km": 6861.207203362684,
      "eccentricity": 0.00015352,
      "inclination_deg": 43.0043,
      "raan_deg": 36.3642,
      "arg_perigee_deg": 258.9446,
      "mean_anomaly_deg": 101.1234,
      "mean_motion_rev_day": 15.27572951
    },
    {
      "epoch": "2026-04-29T18:40:44.226624Z",
      "apogee_km": 483.9681664290747,
      "perigee_km": 482.04841797631707,
      "latitude_deg": 3.7544386453196224e-05,
      "longitude_deg": -111.89224558550063,
      "height_km": 482.82106233559097,
      "semi_major_axis_km": 6861.145292202696,
      "eccentricity": 0.0001399,
      "inclination_deg": 43.003,
      "raan_deg": 26.0265,
      "arg_perigee_deg": 267.8658,
      "mean_anomaly_deg": 92.2034,
      "mean_motion_rev_day": 15.27593627
    },
    {
      "epoch": "2026-04-30T10:22:17.344416Z",
      "apogee_km": 483.8785018790186,
      "perigee_km": 482.02326371551044,
      "latitude_deg": 4.252327361105122e-06,
      "longitude_deg": 8.381058549687884,
      "height_km": 482.51207914912374,
      "semi_major_axis_km": 6861.087882797265,
      "eccentricity": 0.0001352,
      "inclination_deg": 43.0031,
      "raan_deg": 22.3323,
      "arg_perigee_deg": 283.4529,
      "mean_anomaly_deg": 76.6172,
      "mean_motion_rev_day": 15.276128
    },
    {
      "epoch": "2026-05-02T09:26:58.151904Z",
      "apogee_km": 484.2858564750959,
      "perigee_km": 481.7115583576724,
      "latitude_deg": 2.3657505812203375e-05,
      "longitude_deg": 9.199820711830212,
      "height_km": 482.7593325742116,
      "semi_major_axis_km": 6861.135707416383,
      "eccentricity": 0.0001876,
      "inclination_deg": 43.0008,
      "raan_deg": 11.2545,
      "arg_perigee_deg": 270.7364,
      "mean_anomaly_deg": 89.3273,
      "mean_motion_rev_day": 15.27596828
    }
  ]
}